{"type":"FeatureCollection","features":[{"type":"Feature","geometry":{"type":"Polygon","coordinates":[[[-5.55110323984109,36.109345670071],[-5.5471427501114,36.1070865597454],[-5.54356465972344,36.1056574103622],[-5.53576403025762,36.1055434000855],[-5.53387382038961,36.1040962396855],[-5.53130377000617,36.1008427502444],[-5.52447180019942,36.0966245602],[-5.52203567964167,36.0937195402807],[-5.51878679036433,36.0872623401173],[-5.52001320991608,36.0815041598103],[-5.51352739961588,36.0737898803466],[-5.51075645988373,36.0683498998146],[-5.51261080990391,36.0652194903228],[-5.50780738962064,36.0635805501202],[-5.50673528985494,36.0637291700077],[-5.50008447969828,36.0559724800597],[-5.49934343965748,36.0539509401516],[-5.49501796981775,36.0501923996663],[-5.49096245000911,36.0518180301263],[-5.48694223039787,36.0542179298522],[-5.48360815028886,36.05444030002],[-5.48317484970819,36.0533676798415],[-5.47996260001633,36.0532268898184],[-5.47147986987382,36.0506620700736],[-5.46787740998883,36.0508174201381],[-5.46453031957955,36.0502643698386],[-5.4599751801661,36.0526203196877],[-5.45837661015167,36.0540411903335],[-5.4511215796602,36.0556139698562],[-5.44704801988405,36.0581308700901],[-5.44816419998076,36.0590454600615],[-5.44761109019232,36.0616165698592],[-5.44554235004306,36.0618481002398],[-5.44333001958552,36.0649758300371],[-5.44045161978585,36.0659538802551],[-5.43970255958617,36.0672220101701],[-5.43628817997221,36.0691843198537],[-5.42934302962623,36.0711460999103],[-5.42916839982994,36.0744936200234],[-5.42564520998055,36.0769085201302],[-5.4268540198578,36.0830041503483],[-5.42970873018511,36.0844785398735],[-5.4339831802083,36.0851758999287],[-5.4357566099877,36.0861493403099],[-5.44117058013529,36.0863455497046],[-5.44201789985734,36.0886086603086],[-5.44341963012838,36.0890487600002],[-5.44332930991644,36.0936654398536],[-5.44241091009922,36.0977221702656],[-5.44014391985156,36.1027077100031],[-5.43836605958121,36.1034019100499],[-5.43601135962585,36.1059195099163],[-5.43145326026352,36.1050657696416],[-5.43222926004022,36.1093403699674],[-5.43505944007209,36.1096253398414],[-5.43710549955707,36.1114945201972],[-5.4373255400893,36.1139416498954],[-5.43610589024151,36.1154536599137],[-5.44210913994414,36.1173953802358],[-5.44256635008438,36.1196033101303],[-5.4415521395522,36.1212914501534],[-5.4344471402896,36.1214541796993],[-5.43387578032785,36.123818259988],[-5.43157264995803,36.1280291902689],[-5.43975684028722,36.1271776501321],[-5.44103387002378,36.1282332001542],[-5.43994493043972,36.130382530327],[-5.4406982998578,36.1321067202899],[-5.43622785001604,36.1348567002938],[-5.43613698003519,36.1394643097692],[-5.44161567020572,36.1366126497389],[-5.44311583966222,36.1287315199242],[-5.44453890042967,36.1309106998482],[-5.44365994024665,36.1376795601413],[-5.44670099979148,36.1379238801424],[-5.44691339027072,36.1415428502521],[-5.4458622796416,36.1427630897749],[-5.44574016984841,36.1467043601469],[-5.44494066026238,36.148514319655],[-5.44613940990676,36.1502564099835],[-5.44506677025354,36.1550823702832],[-5.44064848019048,36.1620586500622],[-5.43607209023062,36.1675418197513],[-5.43070267023292,36.1721847397719],[-5.44096502044544,36.1754909799142],[-5.4437204804086,36.174010629939],[-5.44450122957822,36.1705155500278],[-5.44607545973999,36.1696631700646],[-5.44989372999054,36.1691253698571],[-5.45326783992692,36.1668209501156],[-5.45519956004591,36.1635365699665],[-5.45972009006642,36.1630741896614],[-5.46586150964291,36.168229570184],[-5.4686250598335,36.1680914900238],[-5.47640018972163,36.1654252398423],[-5.4792550895935,36.1628965497437],[-5.47729391012307,36.162387339723],[-5.47664617000601,36.1594624598286],[-5.47851107972237,36.1576212402963],[-5.48101441043302,36.1534684096876],[-5.48330861963377,36.1536191400454],[-5.48741162977823,36.1512175897752],[-5.48741287035162,36.1491445399494],[-5.4889763800188,36.1444612698577],[-5.49021336016506,36.1435162096917],[-5.49358248984149,36.1432297697832],[-5.50005307010436,36.1405261003085],[-5.50464736977602,36.1410339702003],[-5.50832172991802,36.1388209503236],[-5.51459595013789,36.1366073202796],[-5.51485963980978,36.1347721198548],[-5.51781452037613,36.1316185199806],[-5.5184356703608,36.1288023799388],[-5.52187937996876,36.1284414903537],[-5.53101562010741,36.1299431998101],[-5.53608726026653,36.1318367998007],[-5.53835227961043,36.1269577901001],[-5.53948687966205,36.1214808198012],[-5.54358772037509,36.1180859803591],[-5.54533317032833,36.1146870202337],[-5.55110323984109,36.109345670071]]]},"properties":{"OBJECTID":2761,"INSPIREID":"ES.IGN.SIGLIM34011111004","NATCODE":"34011111004","NAMEUNIT":"Algeciras","CODNUT1":"ES6","CODNUT2":"ES61","CODNUT3":"ES612","CODIGOINE":"11004"},"id":2761}]}