{"type":"FeatureCollection","features":[{"type":"Feature","geometry":{"type":"Polygon","coordinates":[[[-4.56152369977137,36.6209589698398],[-4.55761211971568,36.6210732397433],[-4.55433497033778,36.6227114896446],[-4.55126335010699,36.6206602397353],[-4.54729408024374,36.6201259100089],[-4.54507204977774,36.6174865803378],[-4.54482801973589,36.6159032797815],[-4.54155931003009,36.6123489901599],[-4.53851859992993,36.6123792497623],[-4.53560126984079,36.6101723601838],[-4.53456578001612,36.607003730117],[-4.52727453035072,36.6063581900327],[-4.52570008010173,36.6047558096948],[-4.5140925898878,36.6011989697043],[-4.50948988018845,36.5993375100045],[-4.50681512037887,36.6041035499193],[-4.49935449965482,36.6149063400081],[-4.49736764004539,36.6174011697375],[-4.48773268041382,36.6315837602642],[-4.4817865698515,36.6393828797751],[-4.47536786010977,36.6463943300326],[-4.48224322034135,36.6489762802343],[-4.48793559007356,36.6490063099612],[-4.48969000970492,36.6500119999479],[-4.49319043983825,36.6498996799707],[-4.49223502044817,36.653086400305],[-4.49591615029417,36.6520712401636],[-4.50003873023707,36.6467571298603],[-4.50284072023699,36.646063139981],[-4.50264491984441,36.6441321502378],[-4.50418446964633,36.6414844597197],[-4.50405689989282,36.6398321703141],[-4.50652413988865,36.639313520052],[-4.50916063955199,36.6373477697321],[-4.50981547995307,36.6400356296735],[-4.51802409996642,36.6387239699759],[-4.52363040031467,36.636641670016],[-4.52698398015355,36.6366867996663],[-4.52911848955804,36.635672710074],[-4.53076216038957,36.6375802102114],[-4.53543166971175,36.641101650191],[-4.54045641960967,36.6395404901142],[-4.54622450025239,36.6309656101458],[-4.55038869015928,36.6272428298075],[-4.55900573011485,36.6236420396566],[-4.56152369977137,36.6209589698398]]]},"properties":{"OBJECTID":3470,"INSPIREID":"ES.IGN.SIGLIM34012929901","NATCODE":"34012929901","NAMEUNIT":"Torremolinos","CODNUT1":"ES6","CODNUT2":"ES61","CODNUT3":"ES617","CODIGOINE":"29901"},"id":3470}]}